#aV2008  9 29  0  0   .00000000      96 DD+AD WGS84 FIT  NGA
## 1499  86400.00000000   900.00000000 54738  .0000000000000
+   31     2  3  4  5  6  7  8  9 10 11 12 13 14 15 16 17 18
+         19 20 21 22 23 24 25 26 27 28 29 30 31 32  0  0  0
+          0  0  0  0  0  0  0  0  0  0  0  0  0  0  0  0  0
+          0  0  0  0  0  0  0  0  0  0  0  0  0  0  0  0  0
+          0  0  0  0  0  0  0  0  0  0  0  0  0  0  0  0  0
++         0  0  0  0  0  0  0  0  0  0  0  0  0  0  0  0  0
++         0  0  0  0  0  0  0  0  0  0  0  0  0  0  0  0  0
++         0  0  0  0  0  0  0  0  0  0  0  0  0  0  0  0  0
++         0  0  0  0  0  0  0  0  0  0  0  0  0  0  0  0  0
++         0  0  0  0  0  0  0  0  0  0  0  0  0  0  0  0  0
%c cc cc ccc ccc cccc cccc cccc cccc ccccc ccccc ccccc ccccc
%c cc cc ccc ccc cccc cccc cccc cccc ccccc ccccc ccccc ccccc
%f  0.0000000  0.000000000  0.00000000000  0.000000000000000
%f  0.0000000  0.000000000  0.00000000000  0.000000000000000
%i    0    0    0    0      0      0      0      0         0
%i    0    0    0    0      0      0      0      0         0
/*      NGA, ST. LOUIS,MO.                                  
/*   EPHEMERIS COMPUTED FROM  3 DAYS OF DATA                
/* CCCCCCCCCCCCCCCCCCCCCCCCCCCCCCCCCCCCCCCCCCCCCCCCCCCCCCCCC
/* CCCCCCCCCCCCCCCCCCCCCCCCCCCCCCCCCCCCCCCCCCCCCCCCCCCCCCCCC
*  2008  9 29  1 15   .00000000                                                 
P  2  -1027.570196 -16513.751140  20707.356724    183.950816                    
V  2  25071.739660   8911.471091   7927.579785      -.027903                    
P  3  -4965.508881  21091.153313 -15404.393838    289.750828                    
V  3 -15775.949908  11493.327791  21569.570556       .051609                    
P  4  14198.796346  -9985.126651  20087.088911   -185.014100                    
V  4  23424.006969  10669.358161 -10827.028952      -.113106                    
P  5 -14881.336062 -16191.345648  14692.011858   -172.276020                    
V  5  -2123.287166 -19201.937402 -22728.078547      -.897193                    
P  6 -10593.271148  20987.534845 -12170.977764    163.657479                    
V  6 -13980.484463   7990.702392  25554.125194      -.030472                    
P  7  25359.569807   6367.181324  -4995.099177     19.768228                    
V  7   4894.721234   4704.990416  30918.852421       .018423                    
P  8  21213.647149  -2033.200380 -16241.265258   -171.980938                    
V  8  17904.691589   9478.675465  21824.007402      -.013821                    
P  9 -19279.471826 -14999.056508 -11216.966086     17.238404                    
V  9  13069.973270   2709.839661 -27568.181253       .018200                    
P 10   -607.073426 -26112.385994   3576.967019     -5.411480                    
V 10   3600.058671   4358.300198  31548.655036      -.004706                    
P 11  21849.014706  12022.985272  -9775.819435     18.967886                    
V 11 -12761.810235   1828.120122 -26391.909804      -.008032                    
P 12 -11138.167569 -21239.861213  11593.109774   -348.921845                    
V 12    131.166238 -14731.982156 -26940.870410       .017279                    
P 13  20836.651026  -1877.267052  16243.568125    272.575888                    
V 13 -16250.898340  13001.601959  22193.018619       .011929                    
P 14 -21191.504909  15904.634213    349.182551   -213.972740                    
V 14  -1436.281890  -1428.858817 -32450.229409       .047262                    
P 15  -3315.747614 -16140.830911 -20799.715246   -185.278734                    
V 15  21128.419148 -15998.804038   9052.696461      -.064563                    
P 16  -3535.817536  24468.396330   9476.954449    104.398221                    
V 16  -4013.455840 -11601.563637  28836.001842      -.021240                    
P 17  21292.800707 -15697.541668   -702.975527     39.136478                    
V 17   1068.978178   2954.833416 -31837.366921       .001102                    
P 18 -15610.425411  -1565.222472 -21256.505664   -128.935497                    
V 18  -2769.911834 -27356.606988   3644.229341       .040226                    
P 19   3855.688786  15399.833292 -21191.326685     35.600366                    
V 19 -22828.380076  14662.249663   6685.563066       .001223                    
P 20  13278.741642  18158.449686  14037.971600    103.342885                    
V 20    451.708810  18209.330449 -23753.289510      -.010597                    
P 21 -24901.034953  -3063.903966  -9388.843986     48.782140                    
V 21 -10009.181501  -7313.992391  27677.086516      -.015028                    
P 22 -12490.955958  13410.805212 -19038.785164    210.718569                    
V 22  -4151.556120 -24303.433093 -14334.685583      -.002489                    
P 23  14638.666140   6833.143814  21077.509541    374.878240                    
V 23 -20770.764341  16950.193350   8643.800093       .013726                    
P 24 -22571.391002 -13247.955833   3698.564270    129.003222                    
V 24   5496.423472  -1078.147013  31274.373105       .030696                    
P 25  24572.869216   9423.437126   3128.490726   -116.235740                    
V 25  -4180.387413   1630.145570  31670.367399       .408978                    
P 26   2120.089856 -17581.562889 -20106.847170    332.210401                    
V 26  20540.965815 -13466.666437  14812.599792       .052787                    
P 27  25331.506298   3562.766324  -6681.926259    221.131134                    
V 27   8119.280189   5222.490981  30375.925319       .029051                    
P 28  12539.193795 -11551.052035 -19881.468779    -22.839397                    
V 28   4321.698619  25882.267161 -12401.795768      -.002485                    
P 29 -19486.428919  -1177.524407  18102.596289    -36.208007                    
V 29  17247.918635 -14966.657073  17731.828619       .012722                    
P 30 -15751.546298  -7488.084906  19698.312674     99.121091                    
V 30  -3500.004769 -25608.594700 -12222.502343       .020005                    
P 31 -10492.821943  11779.780088  21585.666626    -29.277045                    
V 31 -24847.448691 -10278.596542  -6428.286565      -.023379                    
P 32   7947.236971  23786.718915   9467.211198    316.557989                    
V 32  -1448.610753  11447.833551 -28683.008862       .000720                    
EOF
